STARLINK-31437          
1 60057U 24112V   26068.43428554 -.00002014  00000+0 -55929-4 0  9997
2 60057  53.1602  79.4530 0001233  73.8346 286.2790 15.30181601 98552
FLOCK 4G-13             
1 62621U 25009N   26068.70638971  .00053076  00000+0  16695-2 0  9995
2 62621  97.4019 151.0918 0003801 292.7207  67.3633 15.32770015 63700
